FLOCK 4H-4              
1 66707U 25276AT  26068.76745488  .00008077  00000+0  39509-3 0  9999
2 66707  97.4291 144.0059 0004417   7.9405 352.1898 15.18459011 15326
TRANSPORTER-15 OBJECT CY
1 66760U 25276CY  26068.70483155  .00006292  00000+0  30148-3 0  9999
2 66760  97.4254 144.0461 0000873 100.2944 259.8389 15.19273890 15326
